{
    "links": {
        "self": "http://www.neowsapp.com/rest/v1/neo/3762172?api_key=iIulBulltgU6a56xZRHN4H3l9WmuAYTsLGpBGhQ2"
    },
    "id": "3762172",
    "neo_reference_id": "3762172",
    "name": "(2016 UA57)",
    "designation": "2016 UA57",
    "nasa_jpl_url": "http://ssd.jpl.nasa.gov/sbdb.cgi?sstr=3762172",
    "absolute_magnitude_h": 25.1,
    "estimated_diameter": {
        "kilometers": {
            "estimated_diameter_min": 0.0253837029,
            "estimated_diameter_max": 0.0567596853
        },
        "meters": {
            "estimated_diameter_min": 25.3837029364,
            "estimated_diameter_max": 56.7596852866
        },
        "miles": {
            "estimated_diameter_min": 0.0157726969,
            "estimated_diameter_max": 0.0352688224
        },
        "feet": {
            "estimated_diameter_min": 83.279867942,
            "estimated_diameter_max": 186.2194458756
        }
    },
    "is_potentially_hazardous_asteroid": false,
    "close_approach_data": [
        {
            "close_approach_date": "2012-12-11",
            "close_approach_date_full": "2012-Dec-11 11:40",
            "epoch_date_close_approach": 1355226000000,
            "relative_velocity": {
                "kilometers_per_second": "13.875709115",
                "kilometers_per_hour": "49952.5528138438",
                "miles_per_hour": "31038.5737192464"
            },
            "miss_distance": {
                "astronomical": "0.3982497683",
                "lunar": "154.9191598687",
                "kilometers": "59577317.065673521",
                "miles": "37019628.2016397498"
            },
            "orbiting_body": "Earth"
        },
        {
            "close_approach_date": "2014-11-16",
            "close_approach_date_full": "2014-Nov-16 20:41",
            "epoch_date_close_approach": 1416170460000,
            "relative_velocity": {
                "kilometers_per_second": "9.1916031488",
                "kilometers_per_hour": "33089.7713356853",
                "miles_per_hour": "20560.697083554"
            },
            "miss_distance": {
                "astronomical": "0.2043306387",
                "lunar": "79.4846184543",
                "kilometers": "30567428.325259569",
                "miles": "18993719.2108532922"
            },
            "orbiting_body": "Earth"
        },
        {
            "close_approach_date": "2016-10-29",
            "close_approach_date_full": "2016-Oct-29 11:43",
            "epoch_date_close_approach": 1477741380000,
            "relative_velocity": {
                "kilometers_per_second": "9.0357016708",
                "kilometers_per_hour": "32528.5260148731",
                "miles_per_hour": "20211.9610674082"
            },
            "miss_distance": {
                "astronomical": "0.0583149103",
                "lunar": "22.6845001067",
                "kilometers": "8723786.370121061",
                "miles": "5420709.4887542018"
            },
            "orbiting_body": "Earth"
        },
        {
            "close_approach_date": "2018-10-16",
            "close_approach_date_full": "2018-Oct-16 22:41",
            "epoch_date_close_approach": 1539729660000,
            "relative_velocity": {
                "kilometers_per_second": "12.6388428495",
                "kilometers_per_hour": "45499.8342582108",
                "miles_per_hour": "28271.8275700533"
            },
            "miss_distance": {
                "astronomical": "0.2120670932",
                "lunar": "82.4940992548",
                "kilometers": "31724785.439811484",
                "miles": "19712867.5744831192"
            },
            "orbiting_body": "Earth"
        },
        {
            "close_approach_date": "2020-10-04",
            "close_approach_date_full": "2020-Oct-04 23:16",
            "epoch_date_close_approach": 1601853360000,
            "relative_velocity": {
                "kilometers_per_second": "17.6705406632",
                "kilometers_per_hour": "63613.9463874466",
                "miles_per_hour": "39527.2324094664"
            },
            "miss_distance": {
                "astronomical": "0.4131302446",
                "lunar": "160.7076651494",
                "kilometers": "61803404.624739002",
                "miles": "38402854.8697701476"
            },
            "orbiting_body": "Earth"
        }
    ],
    "orbital_data": {
        "orbit_id": "5",
        "orbit_determination_date": "2017-04-06 08:22:39",
        "first_observation_date": "2016-10-29",
        "last_observation_date": "2016-11-06",
        "data_arc_in_days": 8,
        "observations_used": 34,
        "orbit_uncertainty": "8",
        "minimum_orbit_intersection": ".0582074",
        "jupiter_tisserand_invariant": "4.311",
        "epoch_osculation": "2457692.5",
        "eccentricity": ".3469685279419598",
        "semi_major_axis": "1.571195662142042",
        "inclination": "14.13432965590999",
        "ascending_node_longitude": "211.9589765735138",
        "orbital_period": "719.355939837027",
        "perihelion_distance": "1.026040216139825",
        "perihelion_argument": "207.7752821791417",
        "aphelion_distance": "2.11635110814426",
        "perihelion_time": "2457712.269015212149",
        "mean_anomaly": "350.1066425085946",
        "mean_motion": ".500447664450452",
        "equinox": "J2000",
        "orbit_class": {
            "orbit_class_type": "AMO",
            "orbit_class_description": "Near-Earth asteroid orbits similar to that of 1221 Amor",
            "orbit_class_range": "1.017 AU < q (perihelion) < 1.3 AU"
        }
    },
    "is_sentry_object": false
}